[{"OBJECT_NAME":"ONEWEB-0699","OBJECT_ID":"2024-188M","EPOCH":"2026-04-18T06:35:51.023040","MEAN_MOTION":13.10375026,"ECCENTRICITY":0.0002135,"INCLINATION":87.8844,"RA_OF_ASC_NODE":48.1871,"ARG_OF_PERICENTER":60.4337,"MEAN_ANOMALY":299.7003,"EPHEMERIS_TYPE":0,"CLASSIFICATION_TYPE":"U","NORAD_CAT_ID":61605,"ELEMENT_SET_NO":999,"REV_AT_EPOCH":7546,"BSTAR":0.0017047000000000002,"MEAN_MOTION_DOT":6.08e-06,"MEAN_MOTION_DDOT":0.0},{"OBJECT_NAME":"ONEWEB-0700","OBJECT_ID":"2024-188N","EPOCH":"2026-04-18T06:38:13.522560","MEAN_MOTION":13.10373628,"ECCENTRICITY":0.0001763,"INCLINATION":87.886,"RA_OF_ASC_NODE":48.0854,"ARG_OF_PERICENTER":56.8052,"MEAN_ANOMALY":303.3244,"EPHEMERIS_TYPE":0,"CLASSIFICATION_TYPE":"U","NORAD_CAT_ID":61606,"ELEMENT_SET_NO":999,"REV_AT_EPOCH":7545,"BSTAR":0.0019812,"MEAN_MOTION_DOT":7.04e-06,"MEAN_MOTION_DDOT":0.0},{"OBJECT_NAME":"ONEWEB-0701","OBJECT_ID":"2024-188P","EPOCH":"2026-04-18T05:12:10.406304","MEAN_MOTION":13.10369408,"ECCENTRICITY":0.0002189,"INCLINATION":87.8839,"RA_OF_ASC_NODE":48.1972,"ARG_OF_PERICENTER":56.9808,"MEAN_ANOMALY":303.153,"EPHEMERIS_TYPE":0,"CLASSIFICATION_TYPE":"U","NORAD_CAT_ID":61607,"ELEMENT_SET_NO":999,"REV_AT_EPOCH":7545,"BSTAR":0.00098832,"MEAN_MOTION_DOT":3.58e-06,"MEAN_MOTION_DDOT":0.0},{"OBJECT_NAME":"ONEWEB-0702","OBJECT_ID":"2024-188Q","EPOCH":"2026-04-18T04:52:07.545504","MEAN_MOTION":13.11417453,"ECCENTRICITY":0.0001928,"INCLINATION":87.8938,"RA_OF_ASC_NODE":32.9024,"ARG_OF_PERICENTER":46.9211,"MEAN_ANOMALY":313.2078,"EPHEMERIS_TYPE":0,"CLASSIFICATION_TYPE":"U","NORAD_CAT_ID":61608,"ELEMENT_SET_NO":999,"REV_AT_EPOCH":7662,"BSTAR":-0.0014829,"MEAN_MOTION_DOT":-5.13e-06,"MEAN_MOTION_DDOT":0.0},{"OBJECT_NAME":"ONEWEB-0704","OBJECT_ID":"2024-188R","EPOCH":"2026-04-18T03:05:29.933088","MEAN_MOTION":13.10372855,"ECCENTRICITY":0.0001844,"INCLINATION":87.8858,"RA_OF_ASC_NODE":48.1958,"ARG_OF_PERICENTER":48.3214,"MEAN_ANOMALY":311.8071,"EPHEMERIS_TYPE":0,"CLASSIFICATION_TYPE":"U","NORAD_CAT_ID":61609,"ELEMENT_SET_NO":999,"REV_AT_EPOCH":7542,"BSTAR":0.0017104,"MEAN_MOTION_DOT":6.1e-06,"MEAN_MOTION_DDOT":0.0},{"OBJECT_NAME":"ONEWEB-0705","OBJECT_ID":"2024-188S","EPOCH":"2026-04-18T01:22:41.997792","MEAN_MOTION":13.10369789,"ECCENTRICITY":8.17e-05,"INCLINATION":87.8848,"RA_OF_ASC_NODE":48.2193,"ARG_OF_PERICENTER":56.9906,"MEAN_ANOMALY":303.13,"EPHEMERIS_TYPE":0,"CLASSIFICATION_TYPE":"U","NORAD_CAT_ID":61610,"ELEMENT_SET_NO":999,"REV_AT_EPOCH":6758,"BSTAR":0.0015636,"MEAN_MOTION_DOT":5.58e-06,"MEAN_MOTION_DDOT":0.0},{"OBJECT_NAME":"ONEWEB-0706","OBJECT_ID":"2024-188T","EPOCH":"2026-04-18T06:31:03.014688","MEAN_MOTION":13.10374474,"ECCENTRICITY":0.000166,"INCLINATION":87.8845,"RA_OF_ASC_NODE":48.1858,"ARG_OF_PERICENTER":60.8917,"MEAN_ANOMALY":299.2376,"EPHEMERIS_TYPE":0,"CLASSIFICATION_TYPE":"U","NORAD_CAT_ID":61611,"ELEMENT_SET_NO":999,"REV_AT_EPOCH":7553,"BSTAR":0.0014394000000000002,"MEAN_MOTION_DOT":5.15e-06,"MEAN_MOTION_DDOT":0.0},{"OBJECT_NAME":"ONEWEB-0707","OBJECT_ID":"2024-188U","EPOCH":"2026-04-18T06:40:37.011360","MEAN_MOTION":13.10373713,"ECCENTRICITY":0.0001855,"INCLINATION":87.8851,"RA_OF_ASC_NODE":48.1764,"ARG_OF_PERICENTER":65.0818,"MEAN_ANOMALY":295.0502,"EPHEMERIS_TYPE":0,"CLASSIFICATION_TYPE":"U","NORAD_CAT_ID":61612,"ELEMENT_SET_NO":999,"REV_AT_EPOCH":7547,"BSTAR":0.0010329,"MEAN_MOTION_DOT":3.73e-06,"MEAN_MOTION_DDOT":0.0},{"OBJECT_NAME":"ONEWEB-0708","OBJECT_ID":"2024-188V","EPOCH":"2026-04-18T05:16:56.894016","MEAN_MOTION":13.10368445,"ECCENTRICITY":0.0001416,"INCLINATION":87.8836,"RA_OF_ASC_NODE":48.2106,"ARG_OF_PERICENTER":86.9363,"MEAN_ANOMALY":273.1926,"EPHEMERIS_TYPE":0,"CLASSIFICATION_TYPE":"U","NORAD_CAT_ID":61613,"ELEMENT_SET_NO":999,"REV_AT_EPOCH":7544,"BSTAR":0.00053703,"MEAN_MOTION_DOT":2e-06,"MEAN_MOTION_DDOT":0.0}]