ONEWEB-0699             
1 61605U 24188M   26108.27489610  .00000608  00000+0  17047-2 0  9999
2 61605  87.8844  48.1871 0002135  60.4337 299.7003 13.10375026 75462
ONEWEB-0700             
1 61606U 24188N   26108.27654540  .00000704  00000+0  19812-2 0  9995
2 61606  87.8860  48.0854 0001763  56.8052 303.3244 13.10373628 75454
ONEWEB-0701             
1 61607U 24188P   26108.21678711  .00000358  00000+0  98832-3 0  9991
2 61607  87.8839  48.1972 0002189  56.9808 303.1530 13.10369408 75453
ONEWEB-0702             
1 61608U 24188Q   26108.20286511 -.00000513  00000+0 -14829-2 0  9992
2 61608  87.8938  32.9024 0001928  46.9211 313.2078 13.11417453 76624
ONEWEB-0704             
1 61609U 24188R   26108.12881867  .00000610  00000+0  17104-2 0  9994
2 61609  87.8858  48.1958 0001844  48.3214 311.8071 13.10372855 75426
ONEWEB-0705             
1 61610U 24188S   26108.05743053  .00000558  00000+0  15636-2 0  9991
2 61610  87.8848  48.2193 0000817  56.9906 303.1300 13.10369789 67580
ONEWEB-0706             
1 61611U 24188T   26108.27156267  .00000515  00000+0  14394-2 0  9994
2 61611  87.8845  48.1858 0001660  60.8917 299.2376 13.10374474 75537
ONEWEB-0707             
1 61612U 24188U   26108.27820615  .00000373  00000+0  10329-2 0  9996
2 61612  87.8851  48.1764 0001855  65.0818 295.0502 13.10373713 75477
ONEWEB-0708             
1 61613U 24188V   26108.22010294  .00000200  00000+0  53703-3 0  9999
2 61613  87.8836  48.2106 0001416  86.9363 273.1926 13.10368445 75442
